{"type": "FeatureCollection", "features": [{"type": "Feature", "geometry": {"type": "Polygon", "coordinates": [[[-85.83750567699997, 39.936582154000064], [-85.83755499699998, 39.936581369000066], [-85.83837809899995, 39.93656825900007], [-85.83837414299995, 39.935964786000056], [-85.83878828499996, 39.93595919100005], [-85.83878795299995, 39.93592332800006], [-85.83878706999997, 39.93582915700006], [-85.83878677499996, 39.93579805200005], [-85.83878427399998, 39.935533156000076], [-85.83754644399994, 39.93553474600003], [-85.83751189299994, 39.93553479000008], [-85.83750567699997, 39.936582154000064]]], "crs": null}, "properties": {"county_fips": "18059", "state_parcel_id": "300210301001001017", "parcel_id": "30-02-10-301-001.001-017", "SHAPE__Area": 1.0786468019020003e-06, "site": "THURSDAY POOLS", "p_mean": 0.15194113552570343}}, {"type": "Feature", "geometry": {"type": "Polygon", "coordinates": [[[-85.83721579899998, 39.93513107200005], [-85.83604860499997, 39.93516118000008], [-85.83604070899997, 39.935161384000025], [-85.83604475399994, 39.93553168400007], [-85.83604510799995, 39.93555965400003], [-85.83605103799994, 39.93555952600008], [-85.83721019399997, 39.935534337000036], [-85.83724444699999, 39.935532109000064], [-85.83724679399995, 39.93513706900006], [-85.83724683599996, 39.935129990000064], [-85.83721579899998, 39.93513107200005]]], "crs": null}, "properties": {"county_fips": "18059", "state_parcel_id": "300210301003002017", "parcel_id": "30-02-10-301-003.002-017", "SHAPE__Area": 4.820654076480001e-07, "site": "THURSDAY POOLS", "p_mean": 0.15194113552570343}}, {"type": "Feature", "geometry": {"type": "Polygon", "coordinates": [[[-85.84010767399997, 39.93518713900005], [-85.84011841699999, 39.935206021000056], [-85.84048736799997, 39.93585415300004], [-85.84052090899996, 39.935825557000044], [-85.84068403199996, 39.93568677700006], [-85.84044698599996, 39.93527030000007], [-85.84040706699994, 39.93520016300005], [-85.84039864699997, 39.935185371000046], [-85.84038979199994, 39.934226771000056], [-85.84038834899997, 39.93396831100006], [-85.84038006699996, 39.932989349000025], [-85.84020077099996, 39.93299207500007], [-85.84020068399997, 39.93299411000004], [-85.84017461799993, 39.93359908200006], [-85.84016068599999, 39.93392520500004], [-85.84016059499999, 39.93392736000004], [-85.84015183199995, 39.93413278700007], [-85.84014933499998, 39.934213025000076], [-85.83958153799995, 39.934216469000035], [-85.83943287499994, 39.934217370000056], [-85.83877255199997, 39.934221371000035], [-85.83877282599997, 39.93424036500005], [-85.83877296199995, 39.934249771000054], [-85.83877304099997, 39.93425529800004], [-85.83877316499996, 39.93426472500005], [-85.83877385599999, 39.93430713200007], [-85.83877410199995, 39.93432221200004], [-85.83877465299997, 39.934386086000075], [-85.84014227499995, 39.934377796000035], [-85.84010767399997, 39.93518713900005]]], "crs": null}, "properties": {"county_fips": "18059", "state_parcel_id": "300210301005000017", "parcel_id": "30-02-10-301-005.000-017", "SHAPE__Area": 9.125219116495002e-07, "site": "THURSDAY POOLS", "p_mean": 0.15194113552570343}}, {"type": "Feature", "geometry": {"type": "Polygon", "coordinates": [[[-85.83965632699994, 39.93299501600006], [-85.83957245499994, 39.93299546800006], [-85.83957246999995, 39.93299751400008], [-85.83957291599995, 39.933062404000054], [-85.83957552099997, 39.93342178300003], [-85.83958103999998, 39.93413618100004], [-85.83958106499995, 39.93413946800007], [-85.83958128999996, 39.93416834100003], [-85.83958131599996, 39.934171681000066], [-85.83958153799995, 39.934216469000035], [-85.84014933499998, 39.934213025000076], [-85.84015183199995, 39.93413278700007], [-85.84016059499999, 39.93392736000004], [-85.84016068599999, 39.93392520500004], [-85.84017461799993, 39.93359908200006], [-85.84020068399997, 39.93299411000004], [-85.84020077099996, 39.93299207500007], [-85.83965632699994, 39.93299501600006]]], "crs": null}, "properties": {"county_fips": "18059", "state_parcel_id": "300210301003001017", "parcel_id": "30-02-10-301-003.001-017", "SHAPE__Area": 7.295578481940001e-07, "site": "THURSDAY POOLS", "p_mean": 0.15194113552570343}}, {"type": "Feature", "geometry": {"type": "Polygon", "coordinates": [[[-85.83957245499994, 39.93299546800006], [-85.83965632699994, 39.93299501600006], [-85.84020077099996, 39.93299207500007], [-85.84038006699996, 39.932989349000025], [-85.84093866399996, 39.93298568100005], [-85.84093981099994, 39.93292330600008], [-85.84100484299995, 39.92939080200006], [-85.84099988199995, 39.92939085300003], [-85.84070002899995, 39.929393891000075], [-85.84069066499995, 39.929393986000036], [-85.83963881299997, 39.929404635000026], [-85.83962476099998, 39.92940477800005], [-85.83950532599994, 39.92940598600006], [-85.83949064499996, 39.92940613500008], [-85.83890732099997, 39.92941203600003], [-85.83883135199994, 39.92941280400004], [-85.83875962099995, 39.929414060000056], [-85.83875975599994, 39.92966327900007], [-85.83876001199997, 39.930135878000044], [-85.83876033699994, 39.930736626000055], [-85.83876088199997, 39.93174308500005], [-85.83876097499996, 39.93191544200005], [-85.83876099499997, 39.931950682000036], [-85.83876129199996, 39.932502009000075], [-85.83876152699997, 39.93293728200007], [-85.83876155899998, 39.93299530100006], [-85.83881970099998, 39.93299515800004], [-85.83942320199998, 39.932993674000045], [-85.83957245499994, 39.93299546800006]]], "crs": null}, "properties": {"county_fips": "18059", "state_parcel_id": "300210300012000017", "parcel_id": "30-02-10-300-012.000-017", "SHAPE__Area": 7.937515998893003e-06, "site": "THURSDAY POOLS", "p_mean": 0.15194113552570343}}, {"type": "Feature", "geometry": {"type": "Polygon", "coordinates": [[[-85.83643726099996, 39.93608014200004], [-85.83644023999994, 39.936601591000056], [-85.83723818599998, 39.936586265000074], [-85.83724441599998, 39.935537296000064], [-85.83724444699999, 39.935532109000064], [-85.83721019399997, 39.935534337000036], [-85.83605103799994, 39.93555952600008], [-85.83604510799995, 39.93555965400003], [-85.83605261099996, 39.936053524000044], [-85.83605303399997, 39.93608214300008], [-85.83643723599994, 39.93607570300003], [-85.83643726099996, 39.93608014200004]]], "crs": null}, "properties": {"county_fips": "18059", "state_parcel_id": "300210301002001017", "parcel_id": "30-02-10-301-002.001-017", "SHAPE__Area": 1.0479874488970002e-06, "site": "THURSDAY POOLS", "p_mean": 0.15194113552570343}}, {"type": "Feature", "geometry": {"type": "Polygon", "coordinates": [[[-85.83404274199995, 39.93665508200007], [-85.83404890799994, 39.93665491300004], [-85.83410866999998, 39.93665327600007], [-85.83414411999996, 39.93665230500005], [-85.83451803899999, 39.93664625400004], [-85.83480297099999, 39.93664592700003], [-85.83483416699994, 39.93664589200006], [-85.83497995499994, 39.93664376600003], [-85.83497905099995, 39.93619226900006], [-85.83497783799999, 39.93558705200007], [-85.83497767799997, 39.93552547200005], [-85.83497572499994, 39.93477448400006], [-85.83404919399999, 39.934784163000074], [-85.83404526999999, 39.93478420400004], [-85.83404526799995, 39.93478621000003], [-85.83404424399998, 39.93554313900006], [-85.83404334999994, 39.93620494000004], [-85.83404274199995, 39.93665508200007]]], "crs": null}, "properties": {"county_fips": "18059", "state_parcel_id": "300210300010001017", "parcel_id": "30-02-10-300-010.001-017", "SHAPE__Area": 1.7452595481435004e-06, "site": "THURSDAY POOLS", "p_mean": 0.15194113552570343}}, {"type": "Feature", "geometry": {"type": "Polygon", "coordinates": [[[-85.83723818599998, 39.936586265000074], [-85.83644023999994, 39.936601591000056], [-85.83644031299997, 39.936624178000045], [-85.83644168499995, 39.93668458700006], [-85.83644945799995, 39.936684496000055], [-85.83647448699998, 39.93668420400007], [-85.83670360699995, 39.936681527000076], [-85.83837853899996, 39.93666194800005], [-85.83837849699995, 39.93665135800006], [-85.83837828399999, 39.936596362000046], [-85.83837809899995, 39.93656825900007], [-85.83755499699998, 39.936581369000066], [-85.83750567699997, 39.936582154000064], [-85.83751189299994, 39.93553479000008], [-85.83751842199996, 39.934434837000026], [-85.83767909799997, 39.934433402000025], [-85.83877405799996, 39.934423622000054], [-85.83877485099998, 39.93440893600007], [-85.83877410199995, 39.93432221200004], [-85.83877385599999, 39.93430713200007], [-85.83877316499996, 39.93426472500005], [-85.83877304099997, 39.93425529800004], [-85.83877296199995, 39.934249771000054], [-85.83877282599997, 39.93424036500005], [-85.83877255199997, 39.934221371000035], [-85.83877250099994, 39.934217800000056], [-85.83818627499994, 39.93421561100007], [-85.83817746899996, 39.93421557800008], [-85.83799937699996, 39.934219676000055], [-85.83770192299994, 39.934225266000055], [-85.83768794499997, 39.93422552800007], [-85.83667653599997, 39.934248850000074], [-85.83666392199996, 39.93424914000008], [-85.83666486399994, 39.93428570200007], [-85.83666941599995, 39.93445404600004], [-85.83668310699994, 39.934453649000034], [-85.83725094999994, 39.93443720800008], [-85.83725093699996, 39.93443947500003], [-85.83724683599996, 39.935129990000064], [-85.83724679399995, 39.93513706900006], [-85.83724444699999, 39.935532109000064], [-85.83724441599998, 39.935537296000064], [-85.83723818599998, 39.936586265000074]]], "crs": null}, "properties": {"county_fips": "18059", "state_parcel_id": "300210300007001017", "parcel_id": "30-02-10-300-007.001-017", "SHAPE__Area": 1.1834663654890002e-06, "site": "THURSDAY POOLS", "p_mean": 0.15194113552570343}}, {"type": "Feature", "geometry": {"type": "Polygon", "coordinates": [[[-85.84011842199999, 39.935206021000056], [-85.83974964699996, 39.93520432500003], [-85.83914557099996, 39.935198795000076], [-85.83878124999995, 39.935195459000056], [-85.83878325699999, 39.935419583000055], [-85.83878427399998, 39.935533156000076], [-85.83878677499996, 39.93579805200005], [-85.83878706999997, 39.93582915700006], [-85.83942333699997, 39.935825591000025], [-85.83996461199996, 39.93619432100007], [-85.84002426099994, 39.93624897900003], [-85.84048736799997, 39.93585415300004], [-85.84011842199999, 39.935206021000056]]], "crs": null}, "properties": {"county_fips": "18059", "state_parcel_id": "300210301001000017", "parcel_id": "30-02-10-301-001.000-017", "SHAPE__Area": 1.1711476188260003e-06, "site": "THURSDAY POOLS", "p_mean": 0.15194113552570343}}, {"type": "Feature", "geometry": {"type": "Polygon", "coordinates": [[[-85.83837896799997, 39.93300215000005], [-85.83826667199997, 39.933004191000066], [-85.83817170999998, 39.93300591600007], [-85.83817171999993, 39.93300811100005], [-85.83817746899996, 39.93421557800008], [-85.83818627499994, 39.93421561100007], [-85.83877250099994, 39.934217800000056], [-85.83877236799998, 39.934202938000055], [-85.83877181899999, 39.93414170600005], [-85.83876560199997, 39.933499324000024], [-85.83876157499998, 39.93299734100003], [-85.83876155899998, 39.93299530100006], [-85.83837896799997, 39.93300215000005]]], "crs": null}, "properties": {"county_fips": "18059", "state_parcel_id": "300210301006001017", "parcel_id": "30-02-10-301-006.001-017", "SHAPE__Area": 7.202324733465002e-07, "site": "THURSDAY POOLS", "p_mean": 0.15194113552570343}}, {"type": "Feature", "geometry": {"type": "Polygon", "coordinates": [[[-85.83877465299997, 39.934386086000075], [-85.83877485099998, 39.93440893600007], [-85.83877405799996, 39.934423622000054], [-85.83877572399996, 39.93444585000003], [-85.83877600299996, 39.934460400000034], [-85.83878124999995, 39.935195459000056], [-85.83914557099996, 39.935198795000076], [-85.83974964699996, 39.93520432500003], [-85.84011841299997, 39.935206021000056], [-85.84010767399997, 39.93518713900005], [-85.84014227499995, 39.934377796000035], [-85.83877465299997, 39.934386086000075]]], "crs": null}, "properties": {"county_fips": "18059", "state_parcel_id": "300210301002000017", "parcel_id": "30-02-10-301-002.000-017", "SHAPE__Area": 1.1032154979590002e-06, "site": "THURSDAY POOLS", "p_mean": 0.15194113552570343}}, {"type": "Feature", "geometry": {"type": "Polygon", "coordinates": [[[-85.83878706999997, 39.93582915700006], [-85.83878795299995, 39.93592332800006], [-85.83878828499996, 39.93595919100005], [-85.83878877099994, 39.93601169500005], [-85.83878931199996, 39.93607080500004], [-85.83959878599995, 39.936146645000065], [-85.83996461199996, 39.93619432100007], [-85.83942333699997, 39.935825591000025], [-85.83878706999997, 39.93582915700006]]], "crs": null}, "properties": {"county_fips": "18059", "state_parcel_id": "300210300008000017", "parcel_id": "30-02-10-300-008.000-017", "SHAPE__Area": 2.5471092967950006e-07, "site": "THURSDAY POOLS", "p_mean": 0.15194113552570343}}, {"type": "Feature", "geometry": {"type": "Polygon", "coordinates": [[[-85.83407253899998, 39.93306602300004], [-85.83407265699998, 39.933074830000066], [-85.83476264899997, 39.933065887000055], [-85.83557346999999, 39.93305664700006], [-85.83585121799996, 39.93305362600006], [-85.83585121499993, 39.93305036900006], [-85.83585120999999, 39.93304550400006], [-85.83407253899998, 39.93306602300004]]], "crs": null}, "properties": {"county_fips": "18059", "state_parcel_id": "300210300016001016", "parcel_id": "30-02-10-300-016.001-016", "SHAPE__Area": 1.4360419284500004e-08, "site": "THURSDAY POOLS", "p_mean": 0.15194113552570343}}, {"type": "Feature", "geometry": {"type": "Polygon", "coordinates": [[[-85.83668310699994, 39.934453649000034], [-85.83666941599995, 39.93445404600004], [-85.83665178899997, 39.934454541000036], [-85.83663832399998, 39.934454919000075], [-85.83604439199996, 39.934471151000025], [-85.83603486399994, 39.93447141100006], [-85.83604043699995, 39.93513289600003], [-85.83604070899997, 39.935161384000025], [-85.83604860499997, 39.93516118000008], [-85.83721579899998, 39.93513107200005], [-85.83724683599996, 39.935129990000064], [-85.83725093699996, 39.93443947500003], [-85.83725094999994, 39.93443720800008], [-85.83668310699994, 39.934453649000034]]], "crs": null}, "properties": {"county_fips": "18059", "state_parcel_id": "300210301004001017", "parcel_id": "30-02-10-301-004.001-017", "SHAPE__Area": 8.372359519100002e-07, "site": "THURSDAY POOLS", "p_mean": 0.15194113552570343}}, {"type": "Feature", "geometry": {"type": "Polygon", "coordinates": [[[-85.83585120999999, 39.93304550400006], [-85.83585118299999, 39.93301792300008], [-85.83585115799997, 39.93301437700006], [-85.83585100699997, 39.932992574000025], [-85.83583466699997, 39.93063607900007], [-85.83583427199994, 39.93057226700006], [-85.83583347299998, 39.93044278600007], [-85.83583170499998, 39.93015684100004], [-85.83582731699994, 39.92944680800008], [-85.83582230899998, 39.92944684300005], [-85.83581820299997, 39.92944687200003], [-85.83578529799996, 39.92944710200004], [-85.83577630399998, 39.92944716300008], [-85.83543504999994, 39.92944950000003], [-85.83543153799997, 39.92996490500008], [-85.83543153099998, 39.930021242000066], [-85.83514957699998, 39.930024710000055], [-85.83506282299999, 39.930025777000026], [-85.83501979399995, 39.930025356000044], [-85.83501275899994, 39.93002543800003], [-85.83405618499995, 39.930036580000035], [-85.83405916099997, 39.93144639500008], [-85.83406686199999, 39.93264583400003], [-85.83407253899998, 39.93306602300004], [-85.83585120999999, 39.93304550400006]]], "crs": null}, "properties": {"county_fips": "18059", "state_parcel_id": "300210300016000016", "parcel_id": "30-02-10-300-016.000-016", "SHAPE__Area": 5.616702300933001e-06, "site": "THURSDAY POOLS", "p_mean": 0.15194113552570343}}, {"type": "Feature", "geometry": {"type": "Polygon", "coordinates": [[[-85.83661907799996, 39.93425018500005], [-85.83660676899996, 39.93425047100004], [-85.83604318399995, 39.934269148000055], [-85.83603385399994, 39.93426945700003], [-85.83603486399994, 39.93447141100006], [-85.83604439199996, 39.934471151000025], [-85.83663832399998, 39.934454919000075], [-85.83665178899997, 39.934454541000036], [-85.83666941599995, 39.93445404600004], [-85.83666486399994, 39.93428570200007], [-85.83666392199996, 39.93424914000008], [-85.83661907799996, 39.93425018500005]]], "crs": null}, "properties": {"county_fips": "18059", "state_parcel_id": "300210301007000017", "parcel_id": "30-02-10-301-007.000-017", "SHAPE__Area": 1.2885651938800004e-07, "site": "THURSDAY POOLS", "p_mean": 0.15194113552570343}}, {"type": "Feature", "geometry": {"type": "Polygon", "coordinates": [[[-85.83603383999997, 39.93425270000006], [-85.83587336799997, 39.934252970000045], [-85.83587432699994, 39.93445877400006], [-85.83603479899995, 39.93445850400008], [-85.83603385399994, 39.93426945700003], [-85.83603383999997, 39.93425270000006]]], "crs": null}, "properties": {"county_fips": "18059", "state_parcel_id": "300210300009002017", "parcel_id": "30-02-10-300-009.002-017", "SHAPE__Area": 3.3019444064500006e-08, "site": "THURSDAY POOLS", "p_mean": 0.15194113552570343}}, {"type": "Feature", "geometry": {"type": "Polygon", "coordinates": [[[-85.83767909799997, 39.934433402000025], [-85.83751842199996, 39.934434837000026], [-85.83751189299994, 39.93553479000008], [-85.83754644399994, 39.93553474600003], [-85.83878427399998, 39.935533156000076], [-85.83878325699999, 39.935419583000055], [-85.83878124999995, 39.935195459000056], [-85.83877600299996, 39.934460400000034], [-85.83877572399996, 39.93444585000003], [-85.83877405799996, 39.934423622000054], [-85.83767909799997, 39.934433402000025]]], "crs": null}, "properties": {"county_fips": "18059", "state_parcel_id": "300210301001002017", "parcel_id": "30-02-10-301-001.002-017", "SHAPE__Area": 1.3970919032885004e-06, "site": "THURSDAY POOLS", "p_mean": 0.15194113552570343}}, {"type": "Feature", "geometry": {"type": "Polygon", "coordinates": [[[-85.83878931199996, 39.93607080500004], [-85.83879361899994, 39.93659056600006], [-85.83922212599998, 39.93658436800007], [-85.83963691299994, 39.93657852100006], [-85.84002426099994, 39.93624897900003], [-85.83996461199996, 39.93619432100007], [-85.83959878599995, 39.936146645000065], [-85.83878931199996, 39.93607080500004]]], "crs": null}, "properties": {"county_fips": "18059", "state_parcel_id": "300210300005000017", "parcel_id": "30-02-10-300-005.000-017", "SHAPE__Area": 4.910004635810001e-07, "site": "THURSDAY POOLS", "p_mean": 0.15194113552570343}}, {"type": "Feature", "geometry": {"type": "Polygon", "coordinates": [[[-85.83497767799997, 39.93552547200005], [-85.83497783799999, 39.93558705200007], [-85.83497905099995, 39.93619226900006], [-85.83497984599995, 39.93658888600004], [-85.83605644699998, 39.936573629000065], [-85.83605305899994, 39.93608574600006], [-85.83605303399997, 39.93608214300008], [-85.83605261099996, 39.936053524000044], [-85.83604510799995, 39.93555965400003], [-85.83604475399994, 39.93553168400007], [-85.83604070899997, 39.935161384000025], [-85.83604043699995, 39.93513289600003], [-85.83603486399994, 39.93447141100006], [-85.83603479899995, 39.93445850400008], [-85.83587432699994, 39.93445877400006], [-85.83587336799997, 39.934252970000045], [-85.83603383999997, 39.93425270000006], [-85.83603385399994, 39.93426945700003], [-85.83604318399995, 39.934269148000055], [-85.83660676899996, 39.93425047100004], [-85.83661907799996, 39.93425018500005], [-85.83666392199996, 39.93424914000008], [-85.83667653599997, 39.934248850000074], [-85.83768794499997, 39.93422552800007], [-85.83770192299994, 39.934225266000055], [-85.83799937699996, 39.934219676000055], [-85.83817746899996, 39.93421557800008], [-85.83817171999993, 39.93300811100005], [-85.83817170999998, 39.93300591600007], [-85.83815157899994, 39.933006284000044], [-85.83806628099995, 39.933007857000064], [-85.83778759799998, 39.93301299600006], [-85.83774155399999, 39.93301401700006], [-85.83758316699993, 39.933016148000036], [-85.83703272399998, 39.93302901200008], [-85.83643606299995, 39.933042467000064], [-85.83641635399994, 39.93304287900003], [-85.83611552499997, 39.93304918200005], [-85.83603276599996, 39.93305091600007], [-85.83600668599996, 39.93305130500005], [-85.83592605499996, 39.93305250900005], [-85.83585121799996, 39.93305362600006], [-85.83557346999999, 39.93305664700006], [-85.83476264899997, 39.933065887000055], [-85.83407265699998, 39.933074830000066], [-85.83407262499998, 39.933076827000036], [-85.83407004099996, 39.93323807500008], [-85.83405576199993, 39.93412933700006], [-85.83404526999999, 39.93478420400004], [-85.83404919399999, 39.934784163000074], [-85.83497572499994, 39.93477448400006], [-85.83497767799997, 39.93552547200005]]], "crs": null}, "properties": {"county_fips": "18059", "state_parcel_id": "300210301005001017", "parcel_id": "30-02-10-301-005.001-017", "SHAPE__Area": 7.879577342555501e-06, "site": "THURSDAY POOLS", "p_mean": 0.15194113552570343}}, {"type": "Feature", "geometry": {"type": "Polygon", "coordinates": [[[-85.83643785899994, 39.92944141900006], [-85.83601804299997, 39.92944545900008], [-85.83600838399997, 39.92944552700004], [-85.83582731699994, 39.92944680800008], [-85.83583170499998, 39.93015684100004], [-85.83583347299998, 39.93044278600007], [-85.83583427199994, 39.93057226700006], [-85.83583466699997, 39.93063607900007], [-85.83585100699997, 39.932992574000025], [-85.83585115799997, 39.93301437700006], [-85.83585118299999, 39.93301792300008], [-85.83585121499993, 39.93305036900006], [-85.83585121799996, 39.93305362600006], [-85.83592605499996, 39.93305250900005], [-85.83600668599996, 39.93305130500005], [-85.83603276599996, 39.93305091600007], [-85.83611552499997, 39.93304918200005], [-85.83641635399994, 39.93304287900003], [-85.83643606299995, 39.933042467000064], [-85.83643608699998, 39.93303938200006], [-85.83643637799997, 39.93300146200005], [-85.83643640099996, 39.93299794400008], [-85.83643697599996, 39.932911509000064], [-85.83643697999997, 39.93290717900004], [-85.83643855399998, 39.93224196800003], [-85.83643860599994, 39.93179022600003], [-85.83643722099998, 39.93031420600005], [-85.83643711699995, 39.93015113000007], [-85.83643710799998, 39.930137537000064], [-85.83643710799998, 39.93013555500005], [-85.83643713099997, 39.93001458700007], [-85.83643785899994, 39.92944141900006]]], "crs": null}, "properties": {"county_fips": "18059", "state_parcel_id": "300210300015000016", "parcel_id": "30-02-10-300-015.000-016", "SHAPE__Area": 2.1579405760500007e-06, "site": "THURSDAY POOLS", "p_mean": 0.15194113552570343}}, {"type": "Feature", "geometry": {"type": "Polygon", "coordinates": [[[-85.83757796599997, 39.93085515800004], [-85.83758307499994, 39.932903347000035], [-85.83758323699999, 39.932968397000025], [-85.83758316699993, 39.933016148000036], [-85.83774155399999, 39.93301401700006], [-85.83778759799998, 39.93301299600006], [-85.83806628099995, 39.933007857000064], [-85.83815157899994, 39.933006284000044], [-85.83817170999998, 39.93300591600007], [-85.83826667199997, 39.933004191000066], [-85.83837896799997, 39.93300215000005], [-85.83876155899998, 39.93299530100006], [-85.83876152699997, 39.93293728200007], [-85.83876129199996, 39.932502009000075], [-85.83876099499997, 39.931950682000036], [-85.83876097499996, 39.93191544200005], [-85.83876088199997, 39.93174308500005], [-85.83876033699994, 39.930736626000055], [-85.83876001199997, 39.930135878000044], [-85.83875975599994, 39.92966327900007], [-85.83875962099995, 39.929414060000056], [-85.83875461899999, 39.92941359300005], [-85.83858614499997, 39.929415737000056], [-85.83838375299996, 39.92941831200005], [-85.83836666599996, 39.92941852900003], [-85.83788855599994, 39.92942461000007], [-85.83788285599996, 39.92987117200005], [-85.83787952599994, 39.93014426500008], [-85.83787859899996, 39.93022029700006], [-85.83787159799994, 39.930772526000055], [-85.83787075799995, 39.93083768100007], [-85.83773363799997, 39.930836534000036], [-85.83757786799998, 39.93083517100007], [-85.83757788099996, 39.93083735300007], [-85.83757796599997, 39.93085515800004]]], "crs": null}, "properties": {"county_fips": "18059", "state_parcel_id": "300210300013000016", "parcel_id": "30-02-10-300-013.000-016", "SHAPE__Area": 3.808485117493001e-06, "site": "THURSDAY POOLS", "p_mean": 0.15194113552570343}}, {"type": "Feature", "geometry": {"type": "Polygon", "coordinates": [[[-85.83643711699995, 39.93015113000007], [-85.83643722099998, 39.93031420600005], [-85.83643860599994, 39.93179022600003], [-85.83643855399998, 39.93224196800003], [-85.83643697999997, 39.93290717900004], [-85.83643697599996, 39.932911509000064], [-85.83643640099996, 39.93299794400008], [-85.83643637799997, 39.93300146200005], [-85.83643608699998, 39.93303938200006], [-85.83643606299995, 39.933042467000064], [-85.83703272399998, 39.93302901200008], [-85.83758316699993, 39.933016148000036], [-85.83758323699999, 39.932968397000025], [-85.83758307499994, 39.932903347000035], [-85.83757796599997, 39.93085515800004], [-85.83757788099996, 39.93083735300007], [-85.83757786799998, 39.93083517100007], [-85.83757784599999, 39.93083187900004], [-85.83757323199995, 39.93013943500006], [-85.83755901799998, 39.93013941300006], [-85.83700677399997, 39.930137657000046], [-85.83699427399995, 39.93013765400008], [-85.83643710799998, 39.930137537000064], [-85.83643711699995, 39.93015113000007]]], "crs": null}, "properties": {"county_fips": "18059", "state_parcel_id": "300210300014000016", "parcel_id": "30-02-10-300-014.000-016", "SHAPE__Area": 3.300579106715501e-06, "site": "THURSDAY POOLS", "p_mean": 0.15194113552570343}}, {"type": "Feature", "geometry": {"type": "Polygon", "coordinates": [[[-85.83837809899995, 39.93656825900007], [-85.83837828399999, 39.936596362000046], [-85.83879361899994, 39.93659056600006], [-85.83878931199996, 39.93607080500004], [-85.83878877099994, 39.93601169500005], [-85.83878828499996, 39.93595919100005], [-85.83837414299995, 39.935964786000056], [-85.83837809899995, 39.93656825900007]]], "crs": null}, "properties": {"county_fips": "18059", "state_parcel_id": "300210300006001017", "parcel_id": "30-02-10-300-006.001-017", "SHAPE__Area": 2.619511155290001e-07, "site": "THURSDAY POOLS", "p_mean": 0.15194113552570343}}, {"type": "Feature", "geometry": {"type": "Polygon", "coordinates": [[[-85.83881970099998, 39.93299515800004], [-85.83876155899998, 39.93299530100006], [-85.83876157499998, 39.93299734100003], [-85.83876560199997, 39.933499324000024], [-85.83877181899999, 39.93414170600005], [-85.83877236799998, 39.934202938000055], [-85.83877250099994, 39.934217800000056], [-85.83877255199997, 39.934221371000035], [-85.83943287499994, 39.934217370000056], [-85.83958153799995, 39.934216469000035], [-85.83958131599996, 39.934171681000066], [-85.83958128999996, 39.93416834100003], [-85.83958106499995, 39.93413946800007], [-85.83958103999998, 39.93413618100004], [-85.83957552099997, 39.93342178300003], [-85.83957291599995, 39.933062404000054], [-85.83957246999995, 39.93299751400008], [-85.83957245499994, 39.93299546800006], [-85.83942320199998, 39.932993674000045], [-85.83881970099998, 39.93299515800004]]], "crs": null}, "properties": {"county_fips": "18059", "state_parcel_id": "300210301004000017", "parcel_id": "30-02-10-301-004.000-017", "SHAPE__Area": 9.919880580505002e-07, "site": "THURSDAY POOLS", "p_mean": 0.15194113552570343}}, {"type": "Feature", "geometry": {"type": "Polygon", "coordinates": [[[-86.39573600199998, 39.861042206000036], [-86.39567030799998, 39.861071355000036], [-86.39536007899994, 39.86122083200007], [-86.39505633899995, 39.86135516500008], [-86.39488031299999, 39.861424535000026], [-86.39473225999996, 39.86146447800007], [-86.39456946199994, 39.861479049000025], [-86.39453883299996, 39.86147851000004], [-86.39454247199996, 39.86205145800005], [-86.39465377199997, 39.86205351900003], [-86.39480144199996, 39.862034384000026], [-86.39522427699995, 39.86194223700005], [-86.39544274599996, 39.86184992200003], [-86.39568253499993, 39.861748618000036], [-86.39598036099994, 39.86161430200008], [-86.39618867799999, 39.86152176000007], [-86.39573600199998, 39.861042206000036]]], "crs": null}, "properties": {"county_fips": "18063", "state_parcel_id": "320702180001000026", "parcel_id": "32-07-02-180-001.000-026", "SHAPE__Area": 9.106099732015002e-07, "site": "FGF LLC", "p_mean": 0.059961166232824326}}, {"type": "Feature", "geometry": {"type": "Polygon", "coordinates": [[[-86.39787945999996, 39.862255540000035], [-86.39795070899999, 39.86225519200008], [-86.39795320799999, 39.862562645000025], [-86.39835857299994, 39.86269757800005], [-86.39834838999997, 39.86183730400006], [-86.39787444199999, 39.86175744600007], [-86.39787945999996, 39.862255540000035]]], "crs": null}, "properties": {"county_fips": "18063", "state_parcel_id": "320702150003000026", "parcel_id": "32-07-02-150-003.000-026", "SHAPE__Area": 3.679845513340001e-07, "site": "FGF LLC", "p_mean": 0.059961166232824326}}, {"type": "Feature", "geometry": {"type": "Polygon", "coordinates": [[[-86.39825762299995, 39.860461771000075], [-86.39954240999998, 39.860672031000036], [-86.40092334999997, 39.86089670600006], [-86.40170001499996, 39.86101572100006], [-86.40179526299994, 39.86103083000006], [-86.40186370199996, 39.86104067600007], [-86.40205680199995, 39.860868477000054], [-86.40211365499994, 39.860774898000045], [-86.40208146699996, 39.86077339000008], [-86.40197042599993, 39.86076712100004], [-86.40196797899995, 39.860766984000065], [-86.40164922799994, 39.86075196400003], [-86.40133886099994, 39.860700836000035], [-86.40102866999996, 39.860635624000054], [-86.40069129499994, 39.860542086000066], [-86.40024484099996, 39.860384545000045], [-86.39988060099995, 39.86023448800006], [-86.39953459999998, 39.86009161900006], [-86.39925292299995, 39.85991387900003], [-86.39912821299998, 39.85980973200003], [-86.39825762299995, 39.860461771000075]]], "crs": null}, "properties": {"county_fips": "18063", "state_parcel_id": "320702120012000026", "parcel_id": "32-07-02-120-012.000-026", "SHAPE__Area": 1.4900347419755004e-06, "site": "FGF LLC", "p_mean": 0.059961166232824326}}, {"type": "Feature", "geometry": {"type": "Polygon", "coordinates": [[[-86.39379699899996, 39.85926815600004], [-86.39352345699996, 39.859144395000044], [-86.39313330499994, 39.85914729000007], [-86.39409573999995, 39.85951884100007], [-86.39486548699995, 39.85981415700007], [-86.39545930499997, 39.859995379000054], [-86.39711433099995, 39.86026957300004], [-86.39839650099998, 39.85930929800003], [-86.39719625299995, 39.85843918900008], [-86.39680431299996, 39.85816081100006], [-86.39420302299999, 39.85822694600006], [-86.39419811499994, 39.858229745000074], [-86.39419334799999, 39.85823268100006], [-86.39418868699994, 39.85823572800007], [-86.39418416699993, 39.858238914000026], [-86.39417982399993, 39.85824221000007], [-86.39417558699995, 39.858245615000044], [-86.39417152599998, 39.85824916100006], [-86.39416764299995, 39.85825278800007], [-86.39416390099996, 39.85825652700004], [-86.39416033699996, 39.858260349000034], [-86.39415694899998, 39.85826428300004], [-86.39415373799994, 39.85826827100004], [-86.39415074099998, 39.858272371000055], [-86.39414788499994, 39.85827655500003], [-86.39414524299997, 39.85828079400005], [-86.39414277699996, 39.85828511600005], [-86.39414052499995, 39.858289496000054], [-86.39413844999996, 39.85829393100005], [-86.39413658799998, 39.858298422000075], [-86.39413493999996, 39.85830294200008], [-86.39413346899994, 39.85830751800006], [-86.39413221199999, 39.85831214900003], [-86.39413120399996, 39.85831678200003], [-86.39413037399999, 39.85832144400007], [-86.39412975699997, 39.85832613500003], [-86.39412931799995, 39.85833085400003], [-86.39412912799997, 39.85833554800007], [-86.39412915299994, 39.85834027000004], [-86.39412938999999, 39.85834496500007], [-86.39412980699996, 39.85834966300007], [-86.39413047199997, 39.85835436100007], [-86.39413131599997, 39.858359033000056], [-86.39413240899995, 39.85836365100005], [-86.39413368099997, 39.85836827000003], [-86.39413516699994, 39.85837283600006], [-86.39413686699999, 39.85837737600008], [-86.39417220299998, 39.858669347000045], [-86.39416923699997, 39.85868805200005], [-86.39416545399996, 39.85870667000006], [-86.39416085199997, 39.85872517300004], [-86.39415543199999, 39.85874353300005], [-86.39414922899994, 39.858761780000066], [-86.39414220899994, 39.85877982900007], [-86.39413440799996, 39.858797681000055], [-86.39412585999997, 39.858815338000056], [-86.39411649599998, 39.85883274100007], [-86.39410642099995, 39.85884992100006], [-86.39409556699997, 39.85886679500004], [-86.39408400099995, 39.85888338900003], [-86.39407169199995, 39.85889967800006], [-86.39405870899998, 39.858915661000026], [-86.39404501699994, 39.85893125400003], [-86.39403065099998, 39.85894651500007], [-86.39401564799994, 39.85896138700008], [-86.39406746699996, 39.859140327000034], [-86.39497220499999, 39.859133593000024], [-86.39496608399998, 39.85974617900007], [-86.39481687599994, 39.859688138000024], [-86.39455866199995, 39.85958788700003], [-86.39430254499996, 39.85948446300006], [-86.39404863399994, 39.859377868000024], [-86.39379699899996, 39.85926815600004]]], "crs": null}, "properties": {"county_fips": "18063", "state_parcel_id": "320702120011000026", "parcel_id": "32-07-02-120-011.000-026", "SHAPE__Area": 6.2458593929975014e-06, "site": "FGF LLC", "p_mean": 0.059961166232824326}}, {"type": "Feature", "geometry": {"type": "Polygon", "coordinates": [[[-86.39835857299994, 39.86269757800005], [-86.39855804199999, 39.86276398200005], [-86.39873559699998, 39.862687752000056], [-86.39940939399997, 39.862398400000075], [-86.40091977999998, 39.861749762000045], [-86.40198806599994, 39.861745830000075], [-86.40198746499999, 39.86171661700007], [-86.40152779599998, 39.86164067300007], [-86.40147249199998, 39.86163167400008], [-86.40075390199996, 39.86151442600004], [-86.39937266599998, 39.86128972000006], [-86.39826067499996, 39.861107711000045], [-86.39808408099998, 39.86167866100004], [-86.39843428699999, 39.861742992000075], [-86.39846504499997, 39.86174852600004], [-86.39852550899997, 39.861722117000056], [-86.39854448799997, 39.86171586000006], [-86.39857329699998, 39.86170960600003], [-86.39860591899998, 39.86170678000008], [-86.39863860599996, 39.861708263000025], [-86.39867128299994, 39.86171430200005], [-86.39870575799995, 39.86172587100003], [-86.39873704399997, 39.86174280200004], [-86.39875952499995, 39.861760394000044], [-86.39878048399999, 39.861784155000066], [-86.39879085899997, 39.86180129100006], [-86.39879967899998, 39.861824210000066], [-86.39880410399996, 39.86185210000008], [-86.39880065299997, 39.86188387000004], [-86.39879041199998, 39.86191073900005], [-86.39877348899995, 39.86193608800005], [-86.39875452499996, 39.86195522000003], [-86.39873306699997, 39.861970934000055], [-86.39870839199995, 39.86198413000005], [-86.39868618999998, 39.861992179000026], [-86.39867732399995, 39.86199536700008], [-86.39863767199995, 39.86200301100007], [-86.39861361199996, 39.86200440700003], [-86.39857445399997, 39.86200173200007], [-86.39854903599996, 39.861996558000044], [-86.39853043599999, 39.86198988700005], [-86.39851144499994, 39.861983104000046], [-86.39848905199995, 39.861971003000065], [-86.39846317099995, 39.861951359000045], [-86.39844473999995, 39.86193126500007], [-86.39843025899995, 39.861908010000036], [-86.39842175799998, 39.86188525700004], [-86.39841801099999, 39.86185009600007], [-86.39834838999997, 39.86183730400006], [-86.39835857299994, 39.86269757800005]]], "crs": null}, "properties": {"county_fips": "18063", "state_parcel_id": "320702103001000026", "parcel_id": "32-07-02-103-001.000-026", "SHAPE__Area": 2.6063133288880005e-06, "site": "FGF LLC", "p_mean": 0.059961166232824326}}, {"type": "Feature", "geometry": {"type": "Polygon", "coordinates": [[[-86.39647769899995, 39.86153796600007], [-86.39640512799997, 39.86154945100003], [-86.39634668499997, 39.86156250100004], [-86.39626245599999, 39.86159991400007], [-86.39604297599999, 39.86169738700005], [-86.39574400399994, 39.86183221700003], [-86.39550271199994, 39.86193417100003], [-86.39527179399994, 39.86203171200003], [-86.39512431599996, 39.86206386200007], [-86.39514204899996, 39.86379029600005], [-86.39704691399999, 39.86378294200006], [-86.39704743699997, 39.86378294000008], [-86.39719372299999, 39.86378249300003], [-86.39762011799996, 39.86378084200004], [-86.39762063799998, 39.863780279000025], [-86.39855804199999, 39.86276398200005], [-86.39835857299994, 39.86269757800005], [-86.39795320799999, 39.862562645000025], [-86.39788177099996, 39.86253886000003], [-86.39735189099997, 39.862362449000045], [-86.39734480499999, 39.86166817000003], [-86.39715991399999, 39.86163701600003], [-86.39685917299994, 39.86157434800003], [-86.39653832799996, 39.86153442700004], [-86.39647769899995, 39.86153796600007]]], "crs": null}, "properties": {"county_fips": "18063", "state_parcel_id": "320702150001000026", "parcel_id": "32-07-02-150-001.000-026", "SHAPE__Area": 5.575866904196501e-06, "site": "FGF LLC", "p_mean": 0.059961166232824326}}, {"type": "Feature", "geometry": {"type": "Polygon", "coordinates": [[[-86.39618867799999, 39.86152176000007], [-86.39620694899997, 39.86151135400007], [-86.39622567799995, 39.861501418000046], [-86.39624482999994, 39.86149200500006], [-86.39626436899994, 39.86148308800006], [-86.39628432999996, 39.86147469700006], [-86.39630464199996, 39.86146685600005], [-86.39632526899999, 39.86145951100008], [-86.39634621199997, 39.861452744000076], [-86.39636746899998, 39.861446529000034], [-86.39638896999998, 39.86144089100003], [-86.39641071499994, 39.86143580500004], [-86.39643266699994, 39.861431295000045], [-86.39645482699996, 39.86142739100006], [-86.39647712399994, 39.86142406400006], [-86.39649955899995, 39.86142131400004], [-86.39652209299999, 39.861419169000044], [-86.39654472899997, 39.86141760100003], [-86.39656742999995, 39.861416665000036], [-86.39659012499999, 39.861416305000034], [-86.39661284899995, 39.86141654900007], [-86.39663556899995, 39.86141737100007], [-86.39665820999994, 39.861418822000076], [-86.39668077399995, 39.86142085000006], [-86.39735298399995, 39.861544354000046], [-86.39752527799999, 39.86098735200005], [-86.39719869299995, 39.86093389300004], [-86.39705779399998, 39.86091019200006], [-86.39666443099998, 39.86086621900006], [-86.39645442999995, 39.860870686000055], [-86.39624153299997, 39.86089048100007], [-86.39605892699996, 39.86092330300005], [-86.39589425799994, 39.86097204200007], [-86.39573600199998, 39.861042206000036], [-86.39618867799999, 39.86152176000007]]], "crs": null}, "properties": {"county_fips": "18063", "state_parcel_id": "320702180005000026", "parcel_id": "32-07-02-180-005.000-026", "SHAPE__Area": 8.617855981435002e-07, "site": "FGF LLC", "p_mean": 0.059961166232824326}}, {"type": "Feature", "geometry": {"type": "Polygon", "coordinates": [[[-86.39752527799999, 39.86098735200005], [-86.39735298399995, 39.861544354000046], [-86.39808408099998, 39.86167866100004], [-86.39826067499996, 39.861107711000045], [-86.39752527799999, 39.86098735200005]]], "crs": null}, "properties": {"county_fips": "18063", "state_parcel_id": "320702180004000026", "parcel_id": "32-07-02-180-004.000-026", "SHAPE__Area": 4.3574618792400014e-07, "site": "FGF LLC", "p_mean": 0.059961166232824326}}, {"type": "Feature", "geometry": {"type": "Polygon", "coordinates": [[[-86.39512431599996, 39.86206386200007], [-86.39482882299995, 39.86212826800005], [-86.39466271299995, 39.86214979300007], [-86.39460523599996, 39.862155134000034], [-86.39461921799995, 39.863792326000066], [-86.39514204899996, 39.86379029600005], [-86.39512431599996, 39.86206386200007]]], "crs": null}, "properties": {"county_fips": "18063", "state_parcel_id": "320702101002000026", "parcel_id": "32-07-02-101-002.000-026", "SHAPE__Area": 8.734836864045003e-07, "site": "FGF LLC", "p_mean": 0.059961166232824326}}, {"type": "Feature", "geometry": {"type": "Polygon", "coordinates": [[[-86.39787945999996, 39.862255540000035], [-86.39788177099996, 39.86253886000003], [-86.39795320799999, 39.862562645000025], [-86.39795070899999, 39.86225519200008], [-86.39787945999996, 39.862255540000035]]], "crs": null}, "properties": {"county_fips": "18063", "state_parcel_id": "320702150004000026", "parcel_id": "32-07-02-150-004.000-026", "SHAPE__Area": 2.1045576077000006e-08, "site": "FGF LLC", "p_mean": 0.059961166232824326}}, {"type": "Feature", "geometry": {"type": "Polygon", "coordinates": [[[-86.39912821299998, 39.85980973200003], [-86.39925292299995, 39.85991387900003], [-86.39953459999998, 39.86009161900006], [-86.39988060099995, 39.86023448800006], [-86.40024484099996, 39.860384545000045], [-86.40069129499994, 39.860542086000066], [-86.40102866999996, 39.860635624000054], [-86.40133886099994, 39.860700836000035], [-86.40164922799994, 39.86075196400003], [-86.40196797899995, 39.860766984000065], [-86.40195960699998, 39.86035526400008], [-86.40193059899997, 39.86035298100006], [-86.40186317199993, 39.86034525500003], [-86.40168956999997, 39.86032540200006], [-86.40164997899996, 39.86031970700003], [-86.40138875899999, 39.860277075000056], [-86.40113150199994, 39.86022645000003], [-86.40087720999998, 39.860167690000026], [-86.40062499599998, 39.86010059500006], [-86.40061331099997, 39.860097231000054], [-86.40039927999999, 39.86003047000003], [-86.40019130499996, 39.85995660700007], [-86.39998814299997, 39.85987525000007], [-86.39979018399998, 39.859786566000025], [-86.39959792399998, 39.85969075000003], [-86.39941026499997, 39.85958719300004], [-86.39917708599995, 39.85945108300007], [-86.39889760799997, 39.85927826900007], [-86.39862606399998, 39.85909938100008], [-86.39805788299998, 39.85869352100008], [-86.39765178499994, 39.85839137100004], [-86.39731328199997, 39.858147873000064], [-86.39720144099994, 39.85815072500003], [-86.39719625299995, 39.85843918900008], [-86.39839650099998, 39.85930929800003], [-86.39860858999998, 39.85944899100008], [-86.39867038099999, 39.85948968300005], [-86.39895803599995, 39.859667596000065], [-86.39912821299998, 39.85980973200003]]], "crs": null}, "properties": {"county_fips": "18063", "state_parcel_id": "320702100016000026", "parcel_id": "32-07-02-100-016.000-026", "SHAPE__Area": 1.9010552243900005e-06, "site": "FGF LLC", "p_mean": 0.059961166232824326}}, {"type": "Feature", "geometry": {"type": "Polygon", "coordinates": [[[-86.39825762299995, 39.860461771000075], [-86.39912821299998, 39.85980973200003], [-86.39895803599995, 39.859667596000065], [-86.39867038099999, 39.85948968300005], [-86.39860858999998, 39.85944899100008], [-86.39839650099998, 39.85930929800003], [-86.39711433099995, 39.86026957300004], [-86.39825762299995, 39.860461771000075]]], "crs": null}, "properties": {"county_fips": "18063", "state_parcel_id": "320702120009000026", "parcel_id": "32-07-02-120-009.000-026", "SHAPE__Area": 1.1363799062460004e-06, "site": "FGF LLC", "p_mean": 0.059961166232824326}}, {"type": "Feature", "geometry": {"type": "Polygon", "coordinates": [[[-86.39615138899995, 39.86537312200005], [-86.39667020399997, 39.86540927600004], [-86.39667122499998, 39.86549207100006], [-86.39696799299998, 39.86548885700006], [-86.39696839299995, 39.865488854000034], [-86.39753804099996, 39.865494772000034], [-86.39796470099998, 39.86549259900005], [-86.39819897899997, 39.86549140200003], [-86.39818516499997, 39.86502499100004], [-86.39887623899995, 39.86502133000005], [-86.39889005699996, 39.86548787800007], [-86.39895482599997, 39.86548754700004], [-86.39946853799995, 39.86545801800003], [-86.40053048699997, 39.86544525000005], [-86.40080286699998, 39.86544199400004], [-86.40114370499998, 39.865440129000035], [-86.40160994599995, 39.86543757100003], [-86.40171999599994, 39.865436955000064], [-86.40206357699998, 39.86543507600004], [-86.40198806599994, 39.861745830000075], [-86.40091977999998, 39.861749762000045], [-86.39940939399997, 39.862398400000075], [-86.39873559699998, 39.862687752000056], [-86.39855804199999, 39.86276398200005], [-86.39762063799998, 39.863780279000025], [-86.39762011799996, 39.86378084200004], [-86.39615138899995, 39.86537312200005]]], "crs": null}, "properties": {"county_fips": "18063", "state_parcel_id": "320702100001000001", "parcel_id": "32-07-02-100-001.000-001", "SHAPE__Area": 1.4699848006670504e-05, "site": "FGF LLC", "p_mean": 0.059961166232824326}}, {"type": "Feature", "geometry": {"type": "Polygon", "coordinates": [[[-86.39626245599999, 39.86159991400007], [-86.39634668499997, 39.86156250100004], [-86.39640512799997, 39.86154945100003], [-86.39647769899995, 39.86153796600007], [-86.39653832799996, 39.86153442700004], [-86.39685917299994, 39.86157434800003], [-86.39715991399999, 39.86163701600003], [-86.39734480499999, 39.86166817000003], [-86.39787444199999, 39.86175744600007], [-86.39834838999997, 39.86183730400006], [-86.39841801099999, 39.86185009600007], [-86.39842175799998, 39.86188525700004], [-86.39843025899995, 39.861908010000036], [-86.39844473999995, 39.86193126500007], [-86.39846317099995, 39.861951359000045], [-86.39848905199995, 39.861971003000065], [-86.39851144499994, 39.861983104000046], [-86.39853043599999, 39.86198988700005], [-86.39854903599996, 39.861996558000044], [-86.39857445399997, 39.86200173200007], [-86.39861361199996, 39.86200440700003], [-86.39863767199995, 39.86200301100007], [-86.39867732399995, 39.86199536700008], [-86.39868618999998, 39.861992179000026], [-86.39870839199995, 39.86198413000005], [-86.39873306699997, 39.861970934000055], [-86.39875452499996, 39.86195522000003], [-86.39877348899995, 39.86193608800005], [-86.39879041199998, 39.86191073900005], [-86.39880065299997, 39.86188387000004], [-86.39880410399996, 39.86185210000008], [-86.39879967899998, 39.861824210000066], [-86.39879085899997, 39.86180129100006], [-86.39878048399999, 39.861784155000066], [-86.39875952499995, 39.861760394000044], [-86.39873704399997, 39.86174280200004], [-86.39870575799995, 39.86172587100003], [-86.39867128299994, 39.86171430200005], [-86.39863860599996, 39.861708263000025], [-86.39860591899998, 39.86170678000008], [-86.39857329699998, 39.86170960600003], [-86.39854448799997, 39.86171586000006], [-86.39852550899997, 39.861722117000056], [-86.39846504499997, 39.86174852600004], [-86.39843428699999, 39.861742992000075], [-86.39808408099998, 39.86167866100004], [-86.39735298399995, 39.861544354000046], [-86.39668077399995, 39.86142085000006], [-86.39665820999994, 39.861418822000076], [-86.39663556899995, 39.86141737100007], [-86.39661284899995, 39.86141654900007], [-86.39659012499999, 39.861416305000034], [-86.39656742999995, 39.861416665000036], [-86.39654472899997, 39.86141760100003], [-86.39652209299999, 39.861419169000044], [-86.39649955899995, 39.86142131400004], [-86.39647712399994, 39.86142406400006], [-86.39645482699996, 39.86142739100006], [-86.39643266699994, 39.861431295000045], [-86.39641071499994, 39.86143580500004], [-86.39638896999998, 39.86144089100003], [-86.39636746899998, 39.861446529000034], [-86.39634621199997, 39.861452744000076], [-86.39632526899999, 39.86145951100008], [-86.39630464199996, 39.86146685600005], [-86.39628432999996, 39.86147469700006], [-86.39626436899994, 39.86148308800006], [-86.39624482999994, 39.86149200500006], [-86.39622567799995, 39.861501418000046], [-86.39620694899997, 39.86151135400007], [-86.39618867799999, 39.86152176000007], [-86.39626245599999, 39.86159991400007]]], "crs": null}, "properties": {"county_fips": "18063", "state_parcel_id": "ROW", "parcel_id": "ROW", "SHAPE__Area": 3.5487334695300007e-07, "site": "FGF LLC", "p_mean": 0.059961166232824326}}, {"type": "Feature", "geometry": {"type": "Polygon", "coordinates": [[[-86.39269449099999, 39.86137481000003], [-86.39268885599995, 39.86112674700007], [-86.39296682299994, 39.86101587400003], [-86.39305834999999, 39.86104656200007], [-86.39372733699997, 39.86130241500007], [-86.39408553699997, 39.86143941600005], [-86.39440694699994, 39.861476107000044], [-86.39453883299996, 39.86147851000004], [-86.39456946199994, 39.861479049000025], [-86.39473225999996, 39.86146447800007], [-86.39488031299999, 39.861424535000026], [-86.39505633899995, 39.86135516500008], [-86.39536007899994, 39.86122083200007], [-86.39567030799998, 39.861071355000036], [-86.39573600199998, 39.861042206000036], [-86.39589425799994, 39.86097204200007], [-86.39605892699996, 39.86092330300005], [-86.39624153299997, 39.86089048100007], [-86.39645442999995, 39.860870686000055], [-86.39666443099998, 39.86086621900006], [-86.39705779399998, 39.86091019200006], [-86.39719869299995, 39.86093389300004], [-86.39752527799999, 39.86098735200005], [-86.39826067499996, 39.861107711000045], [-86.39937266599998, 39.86128972000006], [-86.40075390199996, 39.86151442600004], [-86.40147249199998, 39.86163167400008], [-86.40152779599998, 39.86164067300007], [-86.40198746499999, 39.86171661700007], [-86.40197404999998, 39.86105966200006], [-86.40186370199996, 39.86104067600007], [-86.40179526299994, 39.86103083000006], [-86.40170001499996, 39.86101572100006], [-86.40092334999997, 39.86089670600006], [-86.39954240999998, 39.860672031000036], [-86.39825762299995, 39.860461771000075], [-86.39711433099995, 39.86026957300004], [-86.39545930499997, 39.859995379000054], [-86.39486548699995, 39.85981415700007], [-86.39409573999995, 39.85951884100007], [-86.39313330499994, 39.85914729000007], [-86.39262230299994, 39.858949997000025], [-86.39262008899999, 39.85880478900003], [-86.39261482999996, 39.85846242800005], [-86.39261610999995, 39.85826725100003], [-86.39247362699996, 39.85827087700005], [-86.39247234299995, 39.858462788000054], [-86.39247762799994, 39.85880608200006], [-86.39248020599996, 39.858975230000055], [-86.39248231499994, 39.859073960000046], [-86.39249293199998, 39.85957472300004], [-86.39252220499998, 39.86032491900005], [-86.39255761299995, 39.861625237000055], [-86.39256639499996, 39.86201417700005], [-86.39256879699997, 39.86211919600004], [-86.39258308299998, 39.86275139400004], [-86.39261492399999, 39.863800009000045], [-86.39275742299998, 39.86379948500007], [-86.39274652799998, 39.86344009900006], [-86.39273787199994, 39.863155808000045], [-86.39273324299995, 39.863002762000065], [-86.39272552599994, 39.86274914100005], [-86.39272189399998, 39.86258904500005], [-86.39271190899996, 39.862145963000046], [-86.39270798599995, 39.86197230400006], [-86.39269449099999, 39.86137481000003]]], "crs": null}, "properties": {"county_fips": "18063", "state_parcel_id": "ROW", "parcel_id": "ROW", "SHAPE__Area": 1.0311248970861002e-05, "site": "FGF LLC", "p_mean": 0.059961166232824326}}, {"type": "Feature", "geometry": {"type": "Polygon", "coordinates": [[[-86.39618867799999, 39.86152176000007], [-86.39598036099994, 39.86161430200008], [-86.39568253499993, 39.861748618000036], [-86.39544274599996, 39.86184992200003], [-86.39522427699995, 39.86194223700005], [-86.39480144199996, 39.862034384000026], [-86.39465377199997, 39.86205351900003], [-86.39454247199996, 39.86205145800005], [-86.39391124899998, 39.86203980200003], [-86.39372347699998, 39.86201892100007], [-86.39369582899997, 39.86201584600008], [-86.39363518999994, 39.86201317900003], [-86.39270798599995, 39.86197230400006], [-86.39271190899996, 39.862145963000046], [-86.39275728699994, 39.862146480000035], [-86.39381444399999, 39.862159028000065], [-86.39379869899994, 39.86260387900006], [-86.39378423699998, 39.86301305000006], [-86.39377574299994, 39.863253041000064], [-86.39377165399998, 39.86326995500008], [-86.39376585899998, 39.86327952900007], [-86.39375596299999, 39.86328954500004], [-86.39374498899997, 39.86329675500008], [-86.39372359599997, 39.86330933700003], [-86.39370927299996, 39.863320316000056], [-86.39369643099997, 39.863332703000026], [-86.39368083599999, 39.86335322700006], [-86.39367061799999, 39.86337400200006], [-86.39366566999996, 39.86339143200007], [-86.39366362899995, 39.86341030700004], [-86.39366480799998, 39.863427828000056], [-86.39366849899994, 39.86344333400007], [-86.39366925199994, 39.86344641300008], [-86.39367792499996, 39.863466093000056], [-86.39369070299995, 39.86348500100007], [-86.39370582599997, 39.86350098500003], [-86.39372066699997, 39.86351296000004], [-86.39374013899999, 39.863525045000074], [-86.39376074099994, 39.863534584000035], [-86.39380120099997, 39.86354605200006], [-86.39383714499996, 39.863549670000054], [-86.39387057699997, 39.86354794700003], [-86.39390034499996, 39.86354219400005], [-86.39392425599993, 39.86353429300004], [-86.39394615999998, 39.863523936000036], [-86.39397061799997, 39.863507638000044], [-86.39398780699997, 39.86349162500005], [-86.39399732699997, 39.86348007000004], [-86.39400760799998, 39.86346371500008], [-86.39401519699999, 39.86344580600007], [-86.39402025699997, 39.863420717000054], [-86.39402025099997, 39.86340353200006], [-86.39401674499999, 39.863383691000024], [-86.39400928299995, 39.86336396400003], [-86.39399901899998, 39.86334660800003], [-86.39398846399996, 39.86333342300003], [-86.39397572799999, 39.86332096600006], [-86.39396397799999, 39.86330977800003], [-86.39395874599995, 39.86330211600006], [-86.39395484899995, 39.86329292400006], [-86.39395341599999, 39.86328657400003], [-86.39395302999998, 39.86327899400004], [-86.39399253699997, 39.86216113000006], [-86.39432663799994, 39.862165091000065], [-86.39445148799996, 39.86216583300006], [-86.39455492499997, 39.86215980400004], [-86.39460523599996, 39.862155134000034], [-86.39466271299995, 39.86214979300007], [-86.39482882299995, 39.86212826800005], [-86.39512431599996, 39.86206386200007], [-86.39527179399994, 39.86203171200003], [-86.39550271199994, 39.86193417100003], [-86.39574400399994, 39.86183221700003], [-86.39604297599999, 39.86169738700005], [-86.39626245599999, 39.86159991400007], [-86.39618867799999, 39.86152176000007]]], "crs": null}, "properties": {"county_fips": "18063", "state_parcel_id": "ROW", "parcel_id": "ROW", "SHAPE__Area": 7.133360762650002e-07, "site": "FGF LLC", "p_mean": 0.059961166232824326}}, {"type": "Feature", "geometry": {"type": "Polygon", "coordinates": [[[-86.39734480499999, 39.86166817000003], [-86.39735189099997, 39.862362449000045], [-86.39788177099996, 39.86253886000003], [-86.39787945999996, 39.862255540000035], [-86.39787444199999, 39.86175744600007], [-86.39734480499999, 39.86166817000003]]], "crs": null}, "properties": {"county_fips": "18063", "state_parcel_id": "320702150002000026", "parcel_id": "32-07-02-150-002.000-026", "SHAPE__Area": 3.900582878070001e-07, "site": "FGF LLC", "p_mean": 0.059961166232824326}}, {"type": "Feature", "geometry": {"type": "Polygon", "coordinates": [[[-86.19374714099996, 39.68458583600005], [-86.19382704999998, 39.68458558300006], [-86.19448727299994, 39.68458343800006], [-86.19462836899999, 39.684384188000024], [-86.19476172399999, 39.684181780000074], [-86.19488721599998, 39.68397639300008], [-86.19500473699998, 39.68376820900005], [-86.19511417899997, 39.683557413000074], [-86.19521544899999, 39.68334419200005], [-86.19530845399998, 39.68312873600007], [-86.19539311299997, 39.68291123500006], [-86.19382434099998, 39.68291633300004], [-86.19374436299995, 39.68291658600003], [-86.19374714099996, 39.68458583600005]]], "crs": null}, "properties": {"county_fips": "18097", "state_parcel_id": "491403104009000500", "parcel_id": "49-14-03-104-009.000-500", "SHAPE__Area": 2.0771234859445005e-06, "site": "ROYAL SPA CORP", "p_mean": 0.11286924034357071}}, {"type": "Feature", "geometry": {"type": "Polygon", "coordinates": [[[-86.19372528799994, 39.69223550400005], [-86.19372535399998, 39.692262956000036], [-86.19614982699994, 39.69224412900007], [-86.19648406499994, 39.69155501400007], [-86.19656935499995, 39.691555805000064], [-86.19685719299997, 39.69222530800005], [-86.19721212799999, 39.69221245800003], [-86.19740736799997, 39.69223201900007], [-86.19777651199996, 39.69210248200005], [-86.19896108999995, 39.69194620300004], [-86.19954500799997, 39.69189581200004], [-86.20025208899995, 39.69178052900003], [-86.20025008799996, 39.69152063900003], [-86.20054316999995, 39.69150998500004], [-86.20083625199999, 39.691499331000045], [-86.20086562899996, 39.69149826300003], [-86.20094362699996, 39.69138870100005], [-86.20101534199995, 39.69127660500004], [-86.20108063399994, 39.691162191000046], [-86.20113937799994, 39.691045677000034], [-86.20119146399998, 39.69092728800007], [-86.20123678799996, 39.69080725200007], [-86.20127526599998, 39.69068579700007], [-86.20117342599997, 39.69028995200006], [-86.20118310799995, 39.69016099100003], [-86.20118484799997, 39.69003182000006], [-86.20117864299993, 39.689902731000075], [-86.20116450299997, 39.68977401600006], [-86.20114246499998, 39.68964596500007], [-86.20111257499997, 39.68951886800005], [-86.20107490299995, 39.68939301100005], [-86.20102953199995, 39.689268680000055], [-86.20097656699994, 39.68914615500006], [-86.20071310399999, 39.68957831700004], [-86.20025778999997, 39.689765471000044], [-86.19949374599997, 39.68961425400005], [-86.19831801399994, 39.69008942000005], [-86.19792185299997, 39.68994699500007], [-86.19755033699994, 39.688944047000064], [-86.19791256899998, 39.688731166000025], [-86.19795546599994, 39.688453940000045], [-86.19750695199997, 39.688387523000074], [-86.19703159599999, 39.68844004400006], [-86.19680606399999, 39.68831435000004], [-86.19643666399998, 39.68768277500004], [-86.19636076199998, 39.68698487800003], [-86.19639264399996, 39.686632674000066], [-86.19627695899999, 39.68640136000005], [-86.19594186599994, 39.686296095000046], [-86.19503793699994, 39.68652623200006], [-86.19440995099995, 39.68649092800007], [-86.19422016899995, 39.68663984600005], [-86.19420456099994, 39.68774054000005], [-86.19371519999999, 39.68774539800006], [-86.19372528799994, 39.69223550400005]]], "crs": null}, "properties": {"county_fips": "18097", "state_parcel_id": "491404104002000500", "parcel_id": "49-14-04-104-002.000-500", "SHAPE__Area": 2.7058542374105007e-05, "site": "ROYAL SPA CORP", "p_mean": 0.11286924034357071}}, {"type": "Feature", "geometry": {"type": "Polygon", "coordinates": [[[-86.19626679099997, 39.68227514200004], [-86.19620515899999, 39.682507282000074], [-86.19613476299998, 39.68273793100008], [-86.19605566299998, 39.68296688700008], [-86.19596792699997, 39.68319395700007], [-86.19587162899995, 39.68341894800005], [-86.19576685099997, 39.68364166500004], [-86.19565368499997, 39.68386191800005], [-86.19553222599995, 39.68407951700004], [-86.19540257699998, 39.68429427900003], [-86.19526485199998, 39.68450601600006], [-86.19511916599998, 39.68471455000008], [-86.19496564499997, 39.68491970100007], [-86.19478146399996, 39.685164461000056], [-86.19442192599996, 39.68559013600003], [-86.19438326099998, 39.685635939000065], [-86.19483377299997, 39.685542912000074], [-86.19548847699997, 39.685448732000054], [-86.19652668299995, 39.685429971000076], [-86.19651061099995, 39.682815763000065], [-86.19626679099997, 39.68227514200004]]], "crs": null}, "properties": {"county_fips": "18097", "state_parcel_id": "491403116001000500", "parcel_id": "49-14-03-116-001.000-500", "SHAPE__Area": 3.014421021351001e-06, "site": "ROYAL SPA CORP", "p_mean": 0.11286924034357071}}, {"type": "Feature", "geometry": {"type": "Polygon", "coordinates": [[[-86.19279449499999, 39.68458892000007], [-86.19279634199995, 39.684930621000035], [-86.19283445599996, 39.68540670600004], [-86.19291836499997, 39.685474329000044], [-86.19300846399994, 39.68548199000003], [-86.19309749399997, 39.68549514600005], [-86.19318489399996, 39.685513713000034], [-86.19327011299998, 39.68553757700005], [-86.19345778699994, 39.68560706100004], [-86.19365255199995, 39.68554363700008], [-86.19382832399998, 39.68536599500004], [-86.19400462199997, 39.685176297000055], [-86.19417331499994, 39.68498251600005], [-86.19433424799996, 39.68478483500007], [-86.19448727299994, 39.68458343800006], [-86.19382704999998, 39.68458558300006], [-86.19374714099996, 39.68458583600005], [-86.19279449499999, 39.68458892000007]]], "crs": null}, "properties": {"county_fips": "18097", "state_parcel_id": "491403104004000500", "parcel_id": "49-14-03-104-004.000-500", "SHAPE__Area": 1.2124665798900002e-06, "site": "ROYAL SPA CORP", "p_mean": 0.11286924034357071}}, {"type": "Feature", "geometry": {"type": "Polygon", "coordinates": [[[-86.19792185299997, 39.68994699500007], [-86.19831801399994, 39.69008942000005], [-86.19949374599997, 39.68961425400005], [-86.20025778999997, 39.689765471000044], [-86.20071310399999, 39.68957831700004], [-86.20097656699994, 39.68914615500006], [-86.20092192899995, 39.689036576000035], [-86.20086121799994, 39.68892892300005], [-86.20079454299997, 39.68882339600003], [-86.20072203099994, 39.68872019200006], [-86.20064381599997, 39.688619506000066], [-86.20028064599995, 39.688174100000026], [-86.20012732799995, 39.68803196600004], [-86.19977471799996, 39.68769755900007], [-86.19961505999999, 39.68750173400008], [-86.19940122699995, 39.68724405200004], [-86.19919259799997, 39.686983836000024], [-86.19898922499993, 39.68672115000004], [-86.19879115399993, 39.686456056000054], [-86.19870177999996, 39.68633427100008], [-86.19839005399996, 39.685810684000046], [-86.19603080999997, 39.68581292600004], [-86.19603038399998, 39.68578970300007], [-86.19579329799996, 39.68578897800006], [-86.19569276199996, 39.68581324400003], [-86.19559412799998, 39.685841792000076], [-86.19551051799994, 39.68587401900004], [-86.19519182399995, 39.68600449400003], [-86.19510242299998, 39.68603733500004], [-86.19500967899995, 39.68606407100003], [-86.19491428599997, 39.686084504000064], [-86.19481696299994, 39.686098478000076], [-86.19471843699995, 39.68610589000008], [-86.19461945299997, 39.68610668300005], [-86.19452074899993, 39.68610085200004], [-86.19442307199995, 39.68608844100004], [-86.19432715099998, 39.68606954100005], [-86.19431633799996, 39.68607261100004], [-86.19350104799997, 39.68639015800005], [-86.19186716599995, 39.68777902800008], [-86.19371519999999, 39.68774539800006], [-86.19420456099994, 39.68774054000005], [-86.19422016899995, 39.68663984600005], [-86.19440995099995, 39.68649092800007], [-86.19503793699994, 39.68652623200006], [-86.19594186599994, 39.686296095000046], [-86.19627695899999, 39.68640136000005], [-86.19639264399996, 39.686632674000066], [-86.19636076199998, 39.68698487800003], [-86.19643666399998, 39.68768277500004], [-86.19680606399999, 39.68831435000004], [-86.19703159599999, 39.68844004400006], [-86.19750695199997, 39.688387523000074], [-86.19795546599994, 39.688453940000045], [-86.19791256899998, 39.688731166000025], [-86.19755033699994, 39.688944047000064], [-86.19792185299997, 39.68994699500007]]], "crs": null}, "properties": {"county_fips": "18097", "state_parcel_id": "491404104001000500", "parcel_id": "49-14-04-104-001.000-500", "SHAPE__Area": 1.4923955137500004e-05, "site": "ROYAL SPA CORP", "p_mean": 0.11286924034357071}}, {"type": "Feature", "geometry": {"type": "Polygon", "coordinates": [[[-86.23685767199999, 39.78451285600005], [-86.23723115599995, 39.78451360100007], [-86.23722103699998, 39.78375807200007], [-86.23644182899994, 39.78376374000004], [-86.23644990099996, 39.784367055000075], [-86.23648998599998, 39.784438289000036], [-86.23685645899997, 39.78443470500008], [-86.23685767199999, 39.78451285600005]]], "crs": null}, "properties": {"county_fips": "18097", "state_parcel_id": "490631106005000914", "parcel_id": "49-06-31-106-005.000-914", "SHAPE__Area": 5.538201176700001e-07, "site": "LINDE GAS & EQUIPMENT", "p_mean": 0.19238290190696716}}, {"type": "Feature", "geometry": {"type": "Polygon", "coordinates": [[[-86.23030782099994, 39.78741878200003], [-86.23033547899996, 39.787419861000046], [-86.23045015299994, 39.787418228000035], [-86.23044340299998, 39.787075136000055], [-86.23094145199997, 39.78706804800004], [-86.23094824099996, 39.78741113600006], [-86.23269440499996, 39.78738625300008], [-86.23304933199995, 39.78734831100007], [-86.23304322999996, 39.78703807100004], [-86.23357689399995, 39.787030479000066], [-86.23364858699995, 39.78702946000004], [-86.23364586999998, 39.786880515000064], [-86.23364925599998, 39.78681752700004], [-86.23366164699996, 39.78675521300005], [-86.23368289199999, 39.786694338000075], [-86.23371272899999, 39.78663564900006], [-86.23375079299996, 39.78657986300004], [-86.23398125299997, 39.786283181000044], [-86.23401616999996, 39.786231979000036], [-86.23404351199997, 39.78617810500003], [-86.23406294199998, 39.78612222400005], [-86.23407422099996, 39.78606502700006], [-86.23410796199994, 39.785793108000064], [-86.23406756599996, 39.785657772000036], [-86.23407847699997, 39.78556983300007], [-86.23075760899997, 39.78429877200006], [-86.23025885899995, 39.78492893300006], [-86.23030782099994, 39.78741878200003]]], "crs": null}, "properties": {"county_fips": "18097", "state_parcel_id": "490632105001000914", "parcel_id": "49-06-32-105-001.000-914", "SHAPE__Area": 8.711637797027503e-06, "site": "LINDE GAS & EQUIPMENT", "p_mean": 0.19238290190696716}}, {"type": "Feature", "geometry": {"type": "Polygon", "coordinates": [[[-86.23498239299994, 39.78738080800008], [-86.23749090999996, 39.78734263500007], [-86.23747913899996, 39.786533966000036], [-86.23495614699993, 39.785579220000045], [-86.23498239299994, 39.78738080800008]]], "crs": null}, "properties": {"county_fips": "18097", "state_parcel_id": "490631129019001914", "parcel_id": "49-06-31-129-019.001-914", "SHAPE__Area": 3.274671558018001e-06, "site": "LINDE GAS & EQUIPMENT", "p_mean": 0.19238290190696716}}, {"type": "Feature", "geometry": {"type": "Polygon", "coordinates": [[[-86.23651571299996, 39.782657063000045], [-86.23670798999996, 39.78279401200007], [-86.23793945299997, 39.78278656600003], [-86.23791647699994, 39.781453843000065], [-86.23725549999995, 39.78132633900003], [-86.23722431399995, 39.78139268000007], [-86.23718658999996, 39.78145696800004], [-86.23713553499994, 39.78152208900008], [-86.23707496999998, 39.781581877000065], [-86.23700985999994, 39.781638118000046], [-86.23693919399994, 39.78168974700003], [-86.23690073299997, 39.78171731800006], [-86.23686069999997, 39.781743523000046], [-86.23679535299999, 39.781788274000064], [-86.23673548099998, 39.781837376000055], [-86.23668156999997, 39.78189043000003], [-86.23663405699995, 39.78194700700004], [-86.23659332599999, 39.78200664900004], [-86.23655970599998, 39.78206887300007], [-86.23653346899994, 39.78213317900003], [-86.23651482899999, 39.78219904100007], [-86.23650393399998, 39.78226593000005], [-86.23650087399994, 39.782333304000076], [-86.23650396999994, 39.78257479000007], [-86.23651571299996, 39.782657063000045]]], "crs": null}, "properties": {"county_fips": "18097", "state_parcel_id": "490631106015000914", "parcel_id": "49-06-31-106-015.000-914", "SHAPE__Area": 1.7161141155670005e-06, "site": "LINDE GAS & EQUIPMENT", "p_mean": 0.19238290190696716}}, {"type": "Feature", "geometry": {"type": "Polygon", "coordinates": [[[-86.23953396999997, 39.78731151200003], [-86.23964156499994, 39.787352068000075], [-86.23981599899997, 39.78707861000004], [-86.23982158499996, 39.78706985300005], [-86.23981672399998, 39.78680993000006], [-86.24008767099997, 39.78680690200008], [-86.24007701199997, 39.78614022700003], [-86.24025618499996, 39.78613709800004], [-86.24038843099999, 39.78613478900007], [-86.24059248599997, 39.78597016300006], [-86.24086196199994, 39.78596550800006], [-86.24084466699998, 39.78478016100007], [-86.23992715599996, 39.78478810100006], [-86.23991619999998, 39.78400369600007], [-86.23971802099999, 39.78400574500006], [-86.23971547499997, 39.78383266900005], [-86.23971410799999, 39.78373989000005], [-86.23917496199994, 39.78374382700008], [-86.23776680199995, 39.78375409600005], [-86.23722103699998, 39.78375807200007], [-86.23723115599995, 39.78451360100007], [-86.23685767199999, 39.78451285600005], [-86.23685645899997, 39.78443470500008], [-86.23648998599998, 39.784438289000036], [-86.23644990099996, 39.784367055000075], [-86.23644182899994, 39.78376374000004], [-86.23635455099998, 39.78376436000008], [-86.23632178099996, 39.783764603000066], [-86.23630301099996, 39.78294251600005], [-86.23628139499993, 39.781995230000064], [-86.23627705299998, 39.781805390000045], [-86.23627097499997, 39.78172515500006], [-86.23625644899994, 39.781645567000055], [-86.23623357199995, 39.78156715800003], [-86.23620249599998, 39.78149044600008], [-86.23616342799994, 39.781415941000034], [-86.23611662599995, 39.781344137000076], [-86.23606240299995, 39.781275513000026], [-86.23600111699994, 39.78121052200004], [-86.23593317699994, 39.78114959800007], [-86.23585903099996, 39.78109314400007], [-86.23577917599994, 39.78104153500004], [-86.23482578699998, 39.780857609000066], [-86.23477588499998, 39.780872000000045], [-86.23478985799994, 39.78172738400008], [-86.23480071499995, 39.781775620000076], [-86.23480963799994, 39.78181818400003], [-86.23484864499994, 39.78220411400008], [-86.23480518899999, 39.782890835000046], [-86.23482359799993, 39.784168581000074], [-86.23482800999994, 39.784271413000056], [-86.23483828399998, 39.784373996000056], [-86.23485439999996, 39.784476131000076], [-86.23487632699994, 39.78457762000005], [-86.23489431799999, 39.784660329000076], [-86.23490780399999, 39.78474354700006], [-86.23491676199995, 39.784827128000074], [-86.23494838399995, 39.78504634800004], [-86.23495614699993, 39.785579220000045], [-86.23747913899996, 39.786533966000036], [-86.23800871899994, 39.78673437100008], [-86.23854547499997, 39.78693747800003], [-86.23953396999997, 39.78731151200003]]], "crs": null}, "properties": {"county_fips": "18097", "state_parcel_id": "490631129001000914", "parcel_id": "49-06-31-129-001.000-914", "SHAPE__Area": 1.8463894878049005e-05, "site": "LINDE GAS & EQUIPMENT", "p_mean": 0.19238290190696716}}, {"type": "Feature", "geometry": {"type": "Polygon", "coordinates": [[[-86.23367772599994, 39.78672986400005], [-86.23368959899994, 39.787330893000046], [-86.23477471899997, 39.78731538900007], [-86.23475033099999, 39.78582696700005], [-86.23416611199997, 39.78560337300007], [-86.23409408999999, 39.78619225600005], [-86.23367772599994, 39.78672986400005]]], "crs": null}, "properties": {"county_fips": "18097", "state_parcel_id": "490632105004000914", "parcel_id": "49-06-32-105-004.000-914", "SHAPE__Area": 1.4158644727975003e-06, "site": "LINDE GAS & EQUIPMENT", "p_mean": 0.19238290190696716}}, {"type": "Feature", "geometry": {"type": "Polygon", "coordinates": [[[-86.23058931799994, 39.78384351700004], [-86.23474352699998, 39.78541166600007], [-86.23473771099998, 39.78505674000007], [-86.23468138799996, 39.78505731800004], [-86.23467979999998, 39.784963712000035], [-86.23468465999997, 39.784793207000064], [-86.23467210499996, 39.78471595600007], [-86.23465538999994, 39.78463917700003], [-86.23463190699994, 39.784530767000035], [-86.23461457999997, 39.78442166900004], [-86.23460344799997, 39.78431209100006], [-86.23459853099996, 39.78420224400003], [-86.23459541199998, 39.78400904700004], [-86.23356360099996, 39.784019116000024], [-86.23351862499999, 39.78126989700007], [-86.23422087499995, 39.78126308900005], [-86.23420256999998, 39.78122285100005], [-86.23408552499995, 39.78093459300004], [-86.23405798199997, 39.780782558000055], [-86.23405840299995, 39.78071686100003], [-86.23227787499997, 39.78037444000006], [-86.23138329399995, 39.78039042900008], [-86.23111734199995, 39.780422663000024], [-86.23082882699998, 39.78042781600004], [-86.23061120599994, 39.78275429000007], [-86.23058931799994, 39.78384351700004]]], "crs": null}, "properties": {"county_fips": "18097", "state_parcel_id": "490632108004000914", "parcel_id": "49-06-32-108-004.000-914", "SHAPE__Area": 1.3012418940253003e-05, "site": "LINDE GAS & EQUIPMENT", "p_mean": 0.19238290190696716}}, {"type": "Feature", "geometry": {"type": "Polygon", "coordinates": [[[-86.23630301099996, 39.78294251600005], [-86.23632178099996, 39.783764603000066], [-86.23635455099998, 39.78376436000008], [-86.23644182899994, 39.78376374000004], [-86.23722103699998, 39.78375807200007], [-86.23776680199995, 39.78375409600005], [-86.23775673099999, 39.782931939000036], [-86.23630301099996, 39.78294251600005]]], "crs": null}, "properties": {"county_fips": "18097", "state_parcel_id": "490631106003000914", "parcel_id": "49-06-31-106-003.000-914", "SHAPE__Area": 1.1917204626355003e-06, "site": "LINDE GAS & EQUIPMENT", "p_mean": 0.19238290190696716}}, {"type": "Feature", "geometry": {"type": "Polygon", "coordinates": [[[-86.23416611199997, 39.78560337300007], [-86.23475033099999, 39.78582696700005], [-86.23474677699994, 39.785610029000054], [-86.22979584899997, 39.78374111100004], [-86.22971280299998, 39.78386809500006], [-86.22866669299998, 39.78346763600007], [-86.22865099099994, 39.78349239200003], [-86.22969673999995, 39.78389269500008], [-86.23072559299999, 39.784286517000055], [-86.23075760899997, 39.78429877200006], [-86.23407847699997, 39.78556983300007], [-86.23416611199997, 39.78560337300007]]], "crs": null}, "properties": {"county_fips": "18097", "state_parcel_id": "490632105005000914", "parcel_id": "49-06-32-105-005.000-914", "SHAPE__Area": 1.0448455218935003e-06, "site": "LINDE GAS & EQUIPMENT", "p_mean": 0.19238290190696716}}, {"type": "Feature", "geometry": {"type": "Polygon", "coordinates": [[[-86.23351862499999, 39.78126989700007], [-86.23356360099996, 39.784019116000024], [-86.23459541199998, 39.78400904700004], [-86.23458657899994, 39.78347123900005], [-86.23463007199996, 39.78286682000004], [-86.23462198799996, 39.78237271200004], [-86.23454533199998, 39.78203786300003], [-86.23453994399995, 39.781952674000024], [-86.23452659999998, 39.781868006000025], [-86.23450536599995, 39.78178430300005], [-86.23447635699995, 39.78170200100004], [-86.23443972199999, 39.78162153000005], [-86.23439565299998, 39.78154330900003], [-86.23434437999998, 39.78146774800007], [-86.23429836099996, 39.78140131300006], [-86.23425715199994, 39.78133302300006], [-86.23422087499995, 39.78126308900005], [-86.23351862499999, 39.78126989700007]]], "crs": null}, "properties": {"county_fips": "18097", "state_parcel_id": "490632108005000914", "parcel_id": "49-06-32-108-005.000-914", "SHAPE__Area": 2.7830472774900007e-06, "site": "LINDE GAS & EQUIPMENT", "p_mean": 0.19238290190696716}}, {"type": "Feature", "geometry": {"type": "Polygon", "coordinates": [[[-85.40017863999998, 40.150045076000026], [-85.40071541299994, 40.150055698000074], [-85.40070639099997, 40.149478352000074], [-85.40070433399995, 40.149347241000044], [-85.40052550499996, 40.149345624000034], [-85.40016765399997, 40.14934238600006], [-85.40016953999998, 40.14946330500004], [-85.40017863999998, 40.150045076000026]]], "crs": null}, "properties": {"county_fips": "18035", "state_parcel_id": "181128300002000001", "parcel_id": "18-11-28-300-002.000-001", "SHAPE__Area": 3.786183485660001e-07, "site": "MAGNA POWERTRAIN EAST", "p_mean": 0.09751777350902557}}, {"type": "Feature", "geometry": {"type": "Polygon", "coordinates": [[[-85.40249284199996, 40.15201945500007], [-85.40485365599994, 40.152015031000076], [-85.40481311299999, 40.14938433000003], [-85.40463730199997, 40.149382752000065], [-85.40245139199999, 40.14936303300004], [-85.40249284199996, 40.15201945500007]]], "crs": null}, "properties": {"county_fips": "18035", "state_parcel_id": "181128300007000001", "parcel_id": "18-11-28-300-007.000-001", "SHAPE__Area": 6.241801261664502e-06, "site": "MAGNA POWERTRAIN EAST", "p_mean": 0.09751777350902557}}, {"type": "Feature", "geometry": {"type": "Polygon", "coordinates": [[[-85.39942806999994, 40.149258356000075], [-85.39942861299994, 40.14930516600003], [-85.39942896799994, 40.149335706000045], [-85.39951996499997, 40.14933653000003], [-85.40016765399997, 40.14934238600006], [-85.40052550499996, 40.149345624000034], [-85.40070433399995, 40.149347241000044], [-85.40103643899994, 40.149350250000055], [-85.40125491599997, 40.14935222200006], [-85.40121301699998, 40.14686390600008], [-85.39939986699994, 40.14683030400005], [-85.39942806999994, 40.149258356000075]]], "crs": null}, "properties": {"county_fips": "18035", "state_parcel_id": "181133100005000012", "parcel_id": "18-11-33-100-005.000-012", "SHAPE__Area": 4.542267550562001e-06, "site": "MAGNA POWERTRAIN EAST", "p_mean": 0.09751777350902557}}, {"type": "Feature", "geometry": {"type": "Polygon", "coordinates": [[[-85.40022071499999, 40.152734450000025], [-85.40252651599997, 40.15272184400004], [-85.40249284199996, 40.15201945500007], [-85.40245139199999, 40.14936303300004], [-85.40133927999995, 40.149352984000075], [-85.40125491599997, 40.14935222200006], [-85.40103643899994, 40.149350250000055], [-85.40070433399995, 40.149347241000044], [-85.40070639099997, 40.149478352000074], [-85.40071541299994, 40.150055698000074], [-85.40017863999998, 40.150045076000026], [-85.40022071499999, 40.152734450000025]]], "crs": null}, "properties": {"county_fips": "18035", "state_parcel_id": "181128300006000001", "parcel_id": "18-11-28-300-006.000-001", "SHAPE__Area": 7.3368092244150015e-06, "site": "MAGNA POWERTRAIN EAST", "p_mean": 0.09751777350902557}}, {"type": "Feature", "geometry": {"type": "Polygon", "coordinates": [[[-85.39540952699997, 40.14740876800005], [-85.39541004599994, 40.147464325000044], [-85.39541316799995, 40.14746435300003], [-85.39584239799996, 40.14746817500003], [-85.39585516299996, 40.14914174000006], [-85.39585639499995, 40.14930331000005], [-85.39590184799994, 40.14930372100008], [-85.39942896799994, 40.149335706000045], [-85.39942861299994, 40.14930516600003], [-85.39942806999994, 40.149258356000075], [-85.39939986699994, 40.14683030400005], [-85.39938641299995, 40.14259965900004], [-85.39536453499994, 40.14258719400004], [-85.39540952699997, 40.14740876800005]]], "crs": null}, "properties": {"county_fips": "18035", "state_parcel_id": "181133100008000012", "parcel_id": "18-11-33-100-008.000-012", "SHAPE__Area": 2.6139669059231508e-05, "site": "MAGNA POWERTRAIN EAST", "p_mean": 0.09751777350902557}}, {"type": "Feature", "geometry": {"type": "Polygon", "coordinates": [[[-85.40245139199999, 40.14936303300004], [-85.40463730199997, 40.149382752000065], [-85.40481311299999, 40.14938433000003], [-85.40480855799996, 40.14882138300004], [-85.40479948399997, 40.14769932400003], [-85.40479948099994, 40.147698870000056], [-85.40474101299998, 40.147698941000044], [-85.40474022099994, 40.147698942000034], [-85.40474492299995, 40.14886724300004], [-85.40452660899996, 40.149337667000054], [-85.40392050399998, 40.14933406200004], [-85.40429565899996, 40.14927448700007], [-85.40443612999997, 40.14914956700005], [-85.40443054999997, 40.14798783200007], [-85.40447815999994, 40.14771374900005], [-85.40447809099999, 40.14769926100007], [-85.40396655699999, 40.14769988300003], [-85.40396468499995, 40.147458319000066], [-85.40447558499994, 40.14745769800004], [-85.40473850699999, 40.14745737800007], [-85.40478664199998, 40.14745732000006], [-85.40479753199998, 40.147457306000035], [-85.40479602099998, 40.14727059200004], [-85.40476382199995, 40.14727052400008], [-85.40450061499996, 40.14726996200005], [-85.40448943099994, 40.146702849000064], [-85.40432746499994, 40.14574434800005], [-85.40429335199997, 40.14492124100008], [-85.40413870899994, 40.14342729500004], [-85.40370352999997, 40.14336785000006], [-85.40325912599997, 40.143252423000035], [-85.40202021199997, 40.14267576100008], [-85.40138596399999, 40.14256077600004], [-85.40120333999994, 40.14255487100007], [-85.40121301699998, 40.14686390600008], [-85.40125491599997, 40.14935222200006], [-85.40133927999995, 40.149352984000075], [-85.40245139199999, 40.14936303300004]], [[-85.40314989099994, 40.14573000000007], [-85.40315016399995, 40.14576019700007], [-85.40311081499999, 40.14576040600008], [-85.40311054199998, 40.14573021000007], [-85.40314989099994, 40.14573000000007]]], "crs": null}, "properties": {"county_fips": "18035", "state_parcel_id": "181133100002000012", "parcel_id": "18-11-33-100-002.000-012", "SHAPE__Area": 2.0085312747646006e-05, "site": "MAGNA POWERTRAIN EAST", "p_mean": 0.09751777350902557}}, {"type": "Feature", "geometry": {"type": "Polygon", "coordinates": [[[-85.39542738299997, 40.14932479200007], [-85.39543782299995, 40.150529396000024], [-85.39545861199997, 40.15292930100003], [-85.39549007199997, 40.156559180000045], [-85.40028086799998, 40.15657903700003], [-85.40026214699998, 40.15538262800004], [-85.40022071499999, 40.152734450000025], [-85.40017863999998, 40.150045076000026], [-85.40016953999998, 40.14946330500004], [-85.40016765399997, 40.14934238600006], [-85.39951996499997, 40.14933653000003], [-85.39942896799994, 40.149335706000045], [-85.39590184799994, 40.14930372100008], [-85.39585639499995, 40.14930331000005], [-85.39542715299996, 40.149299419000045], [-85.39542738299997, 40.14932479200007]]], "crs": null}, "properties": {"county_fips": "18035", "state_parcel_id": "181128300003000001", "parcel_id": "18-11-28-300-003.000-001", "SHAPE__Area": 3.453954305856051e-05, "site": "MAGNA POWERTRAIN EAST", "p_mean": 0.09751777350902557}}], "properties": {"source": "indiana_gis_data_harvest_2025", "n_sites": 5}}
